[{"OBJECT_NAME":"HAIYANG-1C","OBJECT_ID":"2018-068A","EPOCH":"2026-03-09T23:11:36.870144","MEAN_MOTION":14.34145137,"ECCENTRICITY":0.00114449,"INCLINATION":98.527,"RA_OF_ASC_NODE":142.6779,"ARG_OF_PERICENTER":34.5915,"MEAN_ANOMALY":325.6013,"EPHEMERIS_TYPE":0,"CLASSIFICATION_TYPE":"U","NORAD_CAT_ID":43609,"ELEMENT_SET_NO":999,"REV_AT_EPOCH":39286,"BSTAR":4.0329797e-5,"MEAN_MOTION_DOT":6.9e-7,"MEAN_MOTION_DDOT":0},{"OBJECT_NAME":"CZ-6A DEB","OBJECT_ID":"2022-151AEF","EPOCH":"2026-03-07T00:16:24.083040","MEAN_MOTION":14.30100897,"ECCENTRICITY":0.01159513,"INCLINATION":98.701,"RA_OF_ASC_NODE":92.0456,"ARG_OF_PERICENTER":35.2187,"MEAN_ANOMALY":325.6587,"EPHEMERIS_TYPE":0,"CLASSIFICATION_TYPE":"U","NORAD_CAT_ID":56607,"ELEMENT_SET_NO":999,"REV_AT_EPOCH":14950,"BSTAR":0.00035182114,"MEAN_MOTION_DOT":9.33e-6,"MEAN_MOTION_DDOT":0}]
